OBJECT_NAME,OBJECT_ID,EPOCH,MEAN_MOTION,ECCENTRICITY,INCLINATION,RA_OF_ASC_NODE,ARG_OF_PERICENTER,MEAN_ANOMALY,EPHEMERIS_TYPE,CLASSIFICATION_TYPE,NORAD_CAT_ID,ELEMENT_SET_NO,REV_AT_EPOCH,BSTAR,MEAN_MOTION_DOT,MEAN_MOTION_DDOT
DUBAISAT-1,2009-041B,2026-06-26T22:11:30.027840,14.75138299,.00112615,98.0061,311.0761,45.6095,314.6034,0,U,35682,999,90653,.13843493E-3,.884E-5,0
OCEANSAT-2,2009-051A,2026-06-26T22:07:08.764608,13.99661332,.00160178,98.2319,163.8017,206.8492,153.1847,0,U,35931,999,88069,-.13859429E-3,-.24E-5,0
WORLDVIEW-2 (WV-2),2009-055A,2026-06-26T21:44:24.544032,14.37901837,.0004314,98.4769,251.2216,178.0742,182.0463,0,U,35946,999,87704,-.93410947E-4,-.326E-5,0
SMOS,2009-059A,2026-06-26T18:43:04.040832,14.39777362,.00013154,98.4425,4.9743,88.3837,271.7502,0,U,36036,999,87483,.88680851E-4,.234E-5,0
YAOGAN-7,2009-069A,2026-06-26T15:13:30.227232,14.78018524,.0024912,98.0062,63.4426,12.1779,348.0029,0,U,36110,999,89102,.69736E-4,.453E-5,0
TANDEM-X,2010-030A,2026-06-26T14:39:40.676544,15.19151603,.00017816,97.4451,185.1838,93.2192,266.9247,0,U,36605,999,88807,.16556648E-4,.281E-5,0
CARTOSAT-2B,2010-035A,2026-06-26T22:46:14.184192,14.78671641,.00120006,97.9954,228.4365,152.6364,207.5482,0,U,36795,999,86129,.59874853E-4,.387E-5,0
YAOGAN-10,2010-038A,2026-06-26T23:44:49.323264,14.85379945,.00017567,97.8978,201.3155,85.6277,2.8572,0,U,36834,999,85866,.26569565E-3,.2233E-4,0
COSMO-SKYMED 4,2010-060A,2026-06-26T23:06:20.279808,14.82154168,.0001497,97.8890,1.4212,84.2909,275.8475,0,U,37216,999,84601,.94069551E-4,.697E-5,0
RESOURCESAT-2,2011-015A,2026-06-26T22:37:21.653472,14.21602023,.0010537,98.7641,245.3169,224.6731,135.3598,0,U,37387,999,78756,.59282337E-4,.86E-6,0
HAIYANG-2A,2011-043A,2026-06-26T13:49:04.838016,13.74055066,.0005019,99.3402,180.0435,73.9032,286.2669,0,U,37781,999,74794,.70444E-4,.23E-6,0
RASAT,2011-044D,2026-06-27T00:17:56.036832,14.68175784,.00209336,98.0576,269.2595,157.6249,14.7090,0,U,37791,999,79462,.13512024E-3,.731E-5,0
SRMSAT,2011-058D,2026-06-26T19:54:41.404896,14.11577452,.00117193,19.9735,1.1063,310.3748,86.5215,0,U,37841,999,75918,.58080683E-4,.372E-5,0
PLEIADES 1A,2011-076F,2026-06-26T22:58:03.451296,14.58536491,.00017841,98.1978,252.9288,89.7551,83.4793,0,U,38012,999,77341,.74523342E-4,.301E-5,0
ZIYUAN 1-02C (ZY 1-02C),2011-079A,2026-06-26T23:06:21.213792,14.38221804,.00051455,98.4074,245.0669,281.9269,182.0438,0,U,38038,999,76061,.13214751E-3,.358E-5,0
ARIRANG-3 (KOMPSAT-3),2012-025B,2026-06-26T22:55:22.413792,14.62214255,.00068142,98.1174,135.2466,85.0933,275.1046,0,U,38338,999,75277,.94232892E-4,.428E-5,0
EXACTVIEW-1 (ADS-1B),2012-039C,2026-06-26T20:38:54.337632,14.24987267,.00116152,98.9787,295.4695,139.8338,220.3701,0,U,38709,999,72408,.61107801E-4,.97E-6,0
SPOT 6,2012-047A,2026-06-26T22:32:33.074016,14.58526777,.00013457,98.2122,245.1343,74.1017,286.0331,0,U,38755,999,73447,-.4862644E-5,-.68E-6,0
PLEIADES 1B,2012-068A,2026-06-26T22:59:42.203040,14.58565657,.00017216,98.1948,252.8753,85.6500,274.4896,0,U,39019,999,72227,.56963411E-4,.219E-5,0
GOKTURK 2,2012-073A,2026-06-26T23:33:18.652896,14.75553697,.00012428,97.6821,14.9222,58.1056,302.0275,0,U,39030,999,72595,.15857E-3,.1033E-4,0
LANDSAT 8,2013-008A,2026-06-26T21:55:04.101024,14.57100533,.00013612,98.2299,247.9329,93.5759,266.5595,0,U,39084,999,69931,.76894473E-4,.301E-5,0
SARAL,2013-009A,2026-06-26T22:57:52.966656,14.32858184,.00007166,98.5557,4.4003,230.2881,129.8240,0,U,39086,999,69700,.45590133E-4,.81E-6,0
GAOFEN-1,2013-018A,2026-06-26T22:58:04.075104,14.76546064,.00158784,97.9096,249.8264,232.1337,127.8438,0,U,39150,999,70968,.88247262E-4,.565E-5,0
VNREDSAT 1,2013-021B,2026-06-26T22:12:17.735328,14.64866247,.00017422,97.9081,230.9681,84.8392,275.3011,0,U,39160,999,70171,.11894199E-3,.59E-5,0
ARIRANG-5 (KOMPSAT-5),2013-042A,2026-06-26T22:37:48.499680,15.04514247,.00051148,97.6189,4.5059,99.5374,260.6431,0,U,39227,999,70532,.1462682E-3,.1988E-4,0
SKYSAT-A,2013-066C,2026-06-26T17:09:15.812640,15.13022639,.00196357,97.3811,226.8082,282.0342,77.8689,0,U,39418,999,68992,.15092847E-3,.2613E-4,0
DUBAISAT-2,2013-066D,2026-06-26T22:38:10.808160,15.10252864,.00113323,97.4562,167.8316,10.0405,350.1049,0,U,39419,999,68786,.30475587E-3,.4931E-4,0
GPM-CORE,2014-009C,2026-06-26T20:33:01.708992,15.44770651,.00114577,64.9721,275.7394,255.3973,104.5897,0,U,39574,999,69930,.24251977E-3,.11197E-3,0
SENTINEL-1A,2014-016A,2026-06-26T23:13:10.722144,14.59201044,.00013659,98.1780,185.3572,84.7626,275.3729,0,U,39634,999,65144,.49967165E-4,.19E-5,0
KAZEOSAT 1,2014-024A,2026-06-26T22:38:54.255264,14.42083317,.0001232,98.3208,250.1484,74.6073,285.5253,0,U,39731,999,63996,.48293815E-4,.116E-5,0
