DUBAISAT-1              
1 35682U 09041B   26177.92465310  .00000884  00000+0  13843-3 0  9992
2 35682  98.0061 311.0761 0011261  45.6095 314.6034 14.75138299906532
OCEANSAT-2              
1 35931U 09051A   26177.92162922 -.00000240  00000+0 -13859-3 0  9998
2 35931  98.2319 163.8017 0016017 206.8492 153.1847 13.99661332880690
WORLDVIEW-2 (WV-2)      
1 35946U 09055A   26177.90583963 -.00000326  00000+0 -93411-4 0  9996
2 35946  98.4769 251.2216 0004314 178.0742 182.0463 14.37901837877045
SMOS                    
1 36036U 09059A   26177.77990788  .00000234  00000+0  88681-4 0  9992
2 36036  98.4425   4.9743 0001315  88.3837 271.7502 14.39777362874839
YAOGAN-7                
1 36110U 09069A   26177.63437763  .00000453  00000+0  69736-4 0  9993
2 36110  98.0062  63.4426 0024912  12.1779 348.0029 14.78018524891024
TANDEM-X                
1 36605U 10030A   26177.61088746  .00000281  00000+0  16557-4 0  9995
2 36605  97.4451 185.1838 0001781  93.2192 266.9247 15.19151603888078
CARTOSAT-2B             
1 36795U 10035A   26177.94877528  .00000387  00000+0  59875-4 0  9997
2 36795  97.9954 228.4365 0012000 152.6364 207.5482 14.78671641861294
YAOGAN-10               
1 36834U 10038A   26177.98945976  .00002233  00000+0  26570-3 0  9998
2 36834  97.8978 201.3155 0001756  85.6277   2.8572 14.85379945858667
COSMO-SKYMED 4          
1 37216U 10060A   26177.96273472  .00000697  00000+0  94070-4 0  9994
2 37216  97.8890   1.4212 0001497  84.2909 275.8475 14.82154168846012
RESOURCESAT-2           
1 37387U 11015A   26177.94261173  .00000086  00000+0  59282-4 0  9995
2 37387  98.7641 245.3169 0010537 224.6731 135.3598 14.21602023787564
HAIYANG-2A              
1 37781U 11043A   26177.57575044  .00000023  00000+0  70444-4 0  9992
2 37781  99.3402 180.0435 0005019  73.9032 286.2669 13.74055066747942
RASAT                   
1 37791U 11044D   26178.01245413  .00000731  00000+0  13512-3 0  9996
2 37791  98.0576 269.2595 0020933 157.6249  14.7090 14.68175784794623
SRMSAT                  
1 37841U 11058D   26177.82964589  .00000372  00000+0  58081-4 0  9999
2 37841  19.9735   1.1063 0011719 310.3748  86.5215 14.11577452759189
PLEIADES 1A             
1 38012U 11076F   26177.95698439  .00000301  00000+0  74523-4 0  9993
2 38012  98.1978 252.9288 0001784  89.7551  83.4793 14.58536491773411
ZIYUAN 1-02C (ZY 1-02C) 
1 38038U 11079A   26177.96274553  .00000358  00000+0  13215-3 0  9994
2 38038  98.4074 245.0669 0005145 281.9269 182.0438 14.38221804760619
ARIRANG-3 (KOMPSAT-3)   
1 38338U 12025B   26177.95512053  .00000428  00000+0  94233-4 0  9996
2 38338  98.1174 135.2466 0006814  85.0933 275.1046 14.62214255752776
EXACTVIEW-1 (ADS-1B)    
1 38709U 12039C   26177.86035113  .00000097  00000+0  61108-4 0  9997
2 38709  98.9787 295.4695 0011615 139.8338 220.3701 14.24987267724082
SPOT 6                  
1 38755U 12047A   26177.93927169 -.00000068  00000+0 -48626-5 0  9997
2 38755  98.2122 245.1343 0001345  74.1017 286.0331 14.58526777734479
PLEIADES 1B             
1 39019U 12068A   26177.95812735  .00000219  00000+0  56963-4 0  9996
2 39019  98.1948 252.8753 0001721  85.6500 274.4896 14.58565657722272
GOKTURK 2               
1 39030U 12073A   26177.98146589  .00001033  00000+0  15857-3 0  9996
2 39030  97.6821  14.9222 0001242  58.1056 302.0275 14.75553697725953
LANDSAT 8               
1 39084U 13008A   26177.91324191  .00000301  00000+0  76894-4 0  9990
2 39084  98.2299 247.9329 0001361  93.5759 266.5595 14.57100533699315
SARAL                   
1 39086U 13009A   26177.95686304  .00000081  00000+0  45590-4 0  9998
2 39086  98.5557   4.4003 0000716 230.2881 129.8240 14.32858184697008
GAOFEN-1                
1 39150U 13018A   26177.95699161  .00000565  00000+0  88247-4 0  9998
2 39150  97.9096 249.8264 0015878 232.1337 127.8438 14.76546064709681
VNREDSAT 1              
1 39160U 13021B   26177.92520527  .00000590  00000+0  11894-3 0  9990
2 39160  97.9081 230.9681 0001742  84.8392 275.3011 14.64866247701715
ARIRANG-5 (KOMPSAT-5)   
1 39227U 13042A   26177.94292245  .00001988  00000+0  14627-3 0  9991
2 39227  97.6189   4.5059 0005114  99.5374 260.6431 15.04514247705328
SKYSAT-A                
1 39418U 13066C   26177.71476635  .00002613  00000+0  15093-3 0  9995
2 39418  97.3811 226.8082 0019635 282.0342  77.8689 15.13022639689920
DUBAISAT-2              
1 39419U 13066D   26177.94318065  .00004931  00000+0  30476-3 0  9990
2 39419  97.4562 167.8316 0011332  10.0405 350.1049 15.10252864687864
GPM-CORE                
1 39574U 14009C   26177.85626978  .00011197  00000+0  24252-3 0  9992
2 39574  64.9721 275.7394 0011457 255.3973 104.5897 15.44770651699309
SENTINEL-1A             
1 39634U 14016A   26177.96748521  .00000190  00000+0  49967-4 0  9990
2 39634  98.1780 185.3572 0001365  84.7626 275.3729 14.59201044651444
KAZEOSAT 1              
1 39731U 14024A   26177.94368351  .00000116  00000+0  48294-4 0  9994
2 39731  98.3208 250.1484 0001232  74.6073 285.5253 14.42083317639960
